{
"type": "FeatureCollection",
"name": "da_vien_upstream_basins",
"crs": { "type": "name", "properties": { "name": "urn:ogc:def:crs:OGC:1.3:CRS84" } },
"features": [
{ "type": "Feature", "properties": { "HYBAS_ID": 4120015622, "NEXT_DOWN": 4120015621, "NEXT_SINK": 4120015621, "MAIN_BAS": 4120015621, "DIST_SINK": 0.0, "DIST_MAIN": 0.0, "SUB_AREA": 114.0, "UP_AREA": 1709.4, "PFAF_ID": 441053801000, "SIDE": "R", "LAKE": 0, "ENDO": 0, "COAST": 0, "ORDER": 1, "SORT": 61954 }, "geometry": { "type": "MultiPolygon", "coordinates": [ [ [ [ 107.529193931234559, 16.439333628810921 ], [ 107.525050184461833, 16.443209838867212 ], [ 107.529562717013917, 16.449032253689257 ], [ 107.535543823242222, 16.450567287868946 ], [ 107.539456176757852, 16.453599378797765 ], [ 107.55637715657555, 16.454733954535612 ], [ 107.560289510091181, 16.457766045464432 ], [ 107.568877156575553, 16.458900621202279 ], [ 107.572789510091184, 16.461932712131098 ], [ 107.577210489908893, 16.463067287868945 ], [ 107.591036987304719, 16.476000976562524 ], [ 107.592007867731581, 16.490841970282887 ], [ 107.593017578125, 16.488256454467773 ], [ 107.592826843261719, 16.477106094360352 ], [ 107.590492248535156, 16.468015670776367 ], [ 107.586441040039062, 16.463052749633789 ], [ 107.582382202148438, 16.460775375366211 ], [ 107.567207336425781, 16.458063125610352 ], [ 107.564247131347656, 16.456430435180664 ], [ 107.551826477050781, 16.449569702148438 ], [ 107.543060302734375, 16.450172424316406 ], [ 107.53515625, 16.447265625 ], [ 107.531524658203125, 16.444988250732422 ], [ 107.529193931234559, 16.439333628810921 ] ] ], [ [ [ 107.589654232754398, 16.495287680713247 ], [ 107.586753336588572, 16.49640062120228 ], [ 107.58483179418576, 16.494911437669337 ], [ 107.58251953125, 16.496500015258789 ], [ 107.581184387207031, 16.519006729125977 ], [ 107.58203125, 16.524995803833008 ], [ 107.594627380371094, 16.539060592651367 ], [ 107.590339660644531, 16.540704727172852 ], [ 107.578178405761719, 16.526847839355469 ], [ 107.576255798339844, 16.522920608520508 ], [ 107.577766418457031, 16.51817512512207 ], [ 107.579305955495613, 16.493749194496353 ], [ 107.575600518120694, 16.496839396158876 ], [ 107.574432712131113, 16.530178493923636 ], [ 107.592343817816868, 16.549104478624155 ], [ 107.599149237738743, 16.550850762261309 ], [ 107.6, 16.554166666666688 ], [ 107.608333333333363, 16.554166666666688 ], [ 107.609184095594657, 16.550850762261309 ], [ 107.6125, 16.55 ], [ 107.6125, 16.545833333333356 ], [ 107.605005900065137, 16.545118204752626 ], [ 107.599395073784763, 16.538175455729188 ], [ 107.600604926215311, 16.531160481770858 ], [ 107.603561740451426, 16.527172851562522 ], [ 107.604886203342048, 16.513293457031274 ], [ 107.613258192274344, 16.512056138780405 ], [ 107.618660481770874, 16.516061740451413 ], [ 107.620833333333366, 16.516666666666691 ], [ 107.621489122178858, 16.509293280707489 ], [ 107.626956176757844, 16.504733954535613 ], [ 107.636612616644996, 16.503458319769987 ], [ 107.638067287868964, 16.497789510091167 ], [ 107.641099378797776, 16.493877156575543 ], [ 107.642375013563409, 16.484220716688391 ], [ 107.649603949652814, 16.482365587022592 ], [ 107.653599378797779, 16.477210489908877 ], [ 107.654799397786491, 16.459312269422767 ], [ 107.660411919487885, 16.454631890190996 ], [ 107.664456176757852, 16.457766045464432 ], [ 107.670833333333363, 16.458333333333357 ], [ 107.670266045464444, 16.456122843424502 ], [ 107.667233954535632, 16.452210489908875 ], [ 107.666099378797782, 16.439456176757837 ], [ 107.663067287868955, 16.43554382324221 ], [ 107.661932712131119, 16.4311228434245 ], [ 107.657766045464442, 16.425746663411481 ], [ 107.658900621202292, 16.418622843424501 ], [ 107.661932712131119, 16.414710489908877 ], [ 107.663067287868955, 16.410289510091168 ], [ 107.671400621202295, 16.400937228732662 ], [ 107.670161268446222, 16.388396877712694 ], [ 107.6666666666667, 16.3875 ], [ 107.652031792534757, 16.386857096354188 ], [ 107.647968207465311, 16.383976236979187 ], [ 107.645511542426249, 16.382690429687521 ], [ 107.638761732313398, 16.387476603190127 ], [ 107.636857096354206, 16.393801540798634 ], [ 107.633976236979208, 16.397865125868076 ], [ 107.632690429687528, 16.402134874131967 ], [ 107.625642903645868, 16.410365125868079 ], [ 107.624357096354203, 16.414634874131966 ], [ 107.616953531901075, 16.42328050401478 ], [ 107.611866251627646, 16.425642903645855 ], [ 107.602134874131977, 16.417309570312522 ], [ 107.597865125868097, 16.416023763020856 ], [ 107.593801540798651, 16.413142903645856 ], [ 107.578916422526078, 16.411624484592036 ], [ 107.582690429687531, 16.406301540798633 ], [ 107.583976236979197, 16.399678209092905 ], [ 107.580176687590054, 16.39431932315026 ], [ 107.579322814941406, 16.396051406860352 ], [ 107.569007873535156, 16.416975021362305 ], [ 107.568344116210938, 16.425233840942383 ], [ 107.566413879394531, 16.427707672119141 ], [ 107.543312072753906, 16.433652877807617 ], [ 107.534965515136719, 16.43756103515625 ], [ 107.533889770507812, 16.440242767333984 ], [ 107.539436340332031, 16.445415496826172 ], [ 107.551193237304688, 16.445232391357422 ], [ 107.567642211914062, 16.453315734863281 ], [ 107.583244323730469, 16.456233978271484 ], [ 107.587303161621094, 16.458925247192383 ], [ 107.597969055175781, 16.471124649047852 ], [ 107.599861145019531, 16.489507675170898 ], [ 107.597702026367188, 16.496936798095703 ], [ 107.589654232754398, 16.495287680713247 ] ] ] ] } },
{ "type": "Feature", "properties": { "HYBAS_ID": 4129148771, "NEXT_DOWN": 4120015622, "NEXT_SINK": 4120015621, "MAIN_BAS": 4120015621, "DIST_SINK": 0.0, "DIST_MAIN": 0.0, "SUB_AREA": 13.0, "UP_AREA": 1709.4, "PFAF_ID": 441053801000, "SIDE": "L", "LAKE": 1, "ENDO": 0, "COAST": 0, "ORDER": 1, "SORT": 61955 }, "geometry": { "type": "Polygon", "coordinates": [ [ [ 107.577403642320306, 16.391666666666687 ], [ 107.575, 16.391666666666687 ], [ 107.574495581656933, 16.397337076576328 ], [ 107.573547059129993, 16.399186594918227 ], [ 107.571400621202287, 16.401956176757835 ], [ 107.57067336726746, 16.404789989310817 ], [ 107.5693079505226, 16.407452407168311 ], [ 107.563067287868961, 16.414456176757835 ], [ 107.561791653103327, 16.424112616644987 ], [ 107.556122843424518, 16.425567287868947 ], [ 107.553290637641993, 16.427762259623787 ], [ 107.548949635879495, 16.428889452110425 ], [ 107.539456176757852, 16.429733954535614 ], [ 107.537058058278703, 16.431977240980196 ], [ 107.530693054199219, 16.433629989624023 ], [ 107.528968811035156, 16.438787460327148 ], [ 107.529193931234559, 16.439333628810921 ], [ 107.531524658203125, 16.444988250732422 ], [ 107.53515625, 16.447265625 ], [ 107.543060302734375, 16.450172424316406 ], [ 107.551826477050781, 16.449569702148438 ], [ 107.564247131347656, 16.456430435180664 ], [ 107.567207336425781, 16.458063125610352 ], [ 107.582382202148438, 16.460775375366211 ], [ 107.586441040039062, 16.463052749633789 ], [ 107.590492248535156, 16.468015670776367 ], [ 107.592826843261719, 16.477106094360352 ], [ 107.593017578125, 16.488256454467773 ], [ 107.592007867731581, 16.490841970282887 ], [ 107.591728210449219, 16.491558074951172 ], [ 107.581245422363281, 16.491334915161133 ], [ 107.579315185546875, 16.493602752685547 ], [ 107.579305955495613, 16.493749194496353 ], [ 107.577766418457031, 16.51817512512207 ], [ 107.576255798339844, 16.522920608520508 ], [ 107.578178405761719, 16.526847839355469 ], [ 107.590339660644531, 16.540704727172852 ], [ 107.594627380371094, 16.539060592651367 ], [ 107.58203125, 16.524995803833008 ], [ 107.581184387207031, 16.519006729125977 ], [ 107.58251953125, 16.496500015258789 ], [ 107.58483179418576, 16.494911437669337 ], [ 107.586753336588572, 16.49640062120228 ], [ 107.589654232754398, 16.495287680713247 ], [ 107.597702026367188, 16.496936798095703 ], [ 107.599861145019531, 16.489507675170898 ], [ 107.597969055175781, 16.471124649047852 ], [ 107.587303161621094, 16.458925247192383 ], [ 107.583244323730469, 16.456233978271484 ], [ 107.567642211914062, 16.453315734863281 ], [ 107.551193237304688, 16.445232391357422 ], [ 107.539436340332031, 16.445415496826172 ], [ 107.533889770507812, 16.440242767333984 ], [ 107.534965515136719, 16.43756103515625 ], [ 107.543312072753906, 16.433652877807617 ], [ 107.566413879394531, 16.427707672119141 ], [ 107.568344116210938, 16.425233840942383 ], [ 107.569007873535156, 16.416975021362305 ], [ 107.579322814941406, 16.396051406860352 ], [ 107.580176687590054, 16.39431932315026 ], [ 107.581819976112428, 16.390985906527682 ], [ 107.582534790039062, 16.389535903930664 ], [ 107.582115173339844, 16.385818481445312 ], [ 107.580192565917969, 16.386228561401367 ], [ 107.577403642320306, 16.391666666666687 ] ] ] } },
{ "type": "Feature", "properties": { "HYBAS_ID": 4121096531, "NEXT_DOWN": 4120015622, "NEXT_SINK": 4120015621, "MAIN_BAS": 4120015621, "DIST_SINK": 30.2, "DIST_MAIN": 30.2, "SUB_AREA": 63.3, "UP_AREA": 782.6, "PFAF_ID": 441053803100, "SIDE": "L", "LAKE": 0, "ENDO": 0, "COAST": 0, "ORDER": 1, "SORT": 61956 }, "geometry": { "type": "Polygon", "coordinates": [ [ [ 107.595833333333374, 16.25 ], [ 107.593622843424512, 16.250567287868943 ], [ 107.588467746310798, 16.254562717013911 ], [ 107.586932712131116, 16.260543823242209 ], [ 107.583900621202289, 16.264456176757832 ], [ 107.582766045464439, 16.281377156575541 ], [ 107.579733954535627, 16.285289510091168 ], [ 107.578599378797776, 16.292413330078148 ], [ 107.582766045464439, 16.297789510091167 ], [ 107.583900621202289, 16.309079996744813 ], [ 107.579733954535627, 16.314456176757833 ], [ 107.578599378797776, 16.318877156575542 ], [ 107.571400621202287, 16.326956176757832 ], [ 107.57026604546445, 16.348785061306444 ], [ 107.578159925672779, 16.350811089409746 ], [ 107.579733954535627, 16.354913330078148 ], [ 107.575567287868964, 16.360289510091167 ], [ 107.574432712131113, 16.37593722873266 ], [ 107.582766045464439, 16.38528951009117 ], [ 107.583333333333371, 16.3875 ], [ 107.585543823242219, 16.386932712131099 ], [ 107.593622843424512, 16.379733954535613 ], [ 107.599603949652817, 16.378198920355924 ], [ 107.603599378797782, 16.37304382324221 ], [ 107.604799397786493, 16.3551456027561 ], [ 107.610289510091178, 16.350567287868945 ], [ 107.617233954535621, 16.348785061306444 ], [ 107.616099378797784, 16.335289510091169 ], [ 107.612958780924515, 16.331237453884569 ], [ 107.628599378797773, 16.314710489908876 ], [ 107.629733954535624, 16.301956176757834 ], [ 107.63276604546445, 16.29804382324221 ], [ 107.633900621202287, 16.289456176757835 ], [ 107.636932712131113, 16.285543823242207 ], [ 107.638467746310795, 16.27956271701391 ], [ 107.643622843424509, 16.275567287868945 ], [ 107.645833333333371, 16.275 ], [ 107.645833333333371, 16.270833333333353 ], [ 107.617584906684058, 16.270244344075543 ], [ 107.616099378797784, 16.264456176757832 ], [ 107.603188408745694, 16.2506544325087 ], [ 107.595833333333374, 16.25 ] ] ] } },
{ "type": "Feature", "properties": { "HYBAS_ID": 4121096532, "NEXT_DOWN": 4121096531, "NEXT_SINK": 4120015621, "MAIN_BAS": 4120015621, "DIST_SINK": 30.2, "DIST_MAIN": 30.2, "SUB_AREA": 84.4, "UP_AREA": 782.6, "PFAF_ID": 441053803100, "SIDE": "R", "LAKE": 0, "ENDO": 0, "COAST": 0, "ORDER": 1, "SORT": 61957 }, "geometry": { "type": "Polygon", "coordinates": [ [ [ 107.580176687590054, 16.39431932315026 ], [ 107.583976236979197, 16.399678209092905 ], [ 107.582690429687531, 16.406301540798633 ], [ 107.578916422526078, 16.411624484592036 ], [ 107.593801540798651, 16.413142903645856 ], [ 107.597865125868097, 16.416023763020856 ], [ 107.602134874131977, 16.417309570312522 ], [ 107.611866251627646, 16.425642903645855 ], [ 107.616953531901075, 16.42328050401478 ], [ 107.624357096354203, 16.414634874131966 ], [ 107.625642903645868, 16.410365125868079 ], [ 107.632690429687528, 16.402134874131967 ], [ 107.633976236979208, 16.397865125868076 ], [ 107.636857096354206, 16.393801540798634 ], [ 107.638761732313398, 16.387476603190127 ], [ 107.645511542426249, 16.382690429687521 ], [ 107.647968207465311, 16.383976236979187 ], [ 107.652031792534757, 16.386857096354188 ], [ 107.6666666666667, 16.3875 ], [ 107.666099378797782, 16.3686228434245 ], [ 107.661932712131119, 16.363246663411481 ], [ 107.663144599066882, 16.346737331814257 ], [ 107.669982571072083, 16.34498257107207 ], [ 107.671684095594657, 16.338350762261307 ], [ 107.675, 16.3375 ], [ 107.674343193901947, 16.317480807834222 ], [ 107.661882527669306, 16.315667046440993 ], [ 107.663251749674515, 16.305143229166688 ], [ 107.67090793185767, 16.30295410156252 ], [ 107.666049194335969, 16.296302625868076 ], [ 107.667284138997431, 16.28950636121964 ], [ 107.670215861002646, 16.285493638780402 ], [ 107.671450805664094, 16.281173027886304 ], [ 107.674382527669309, 16.277160305447069 ], [ 107.675, 16.270833333333353 ], [ 107.664242214626768, 16.271186659071201 ], [ 107.656250678168433, 16.27915276421443 ], [ 107.652424452039966, 16.275353325737868 ], [ 107.645833333333371, 16.275 ], [ 107.643622843424509, 16.275567287868945 ], [ 107.638467746310795, 16.27956271701391 ], [ 107.636932712131113, 16.285543823242207 ], [ 107.633900621202287, 16.289456176757835 ], [ 107.63276604546445, 16.29804382324221 ], [ 107.629733954535624, 16.301956176757834 ], [ 107.628599378797773, 16.314710489908876 ], [ 107.612958780924515, 16.331237453884569 ], [ 107.616099378797784, 16.335289510091169 ], [ 107.617233954535621, 16.348785061306444 ], [ 107.610289510091178, 16.350567287868945 ], [ 107.604799397786493, 16.3551456027561 ], [ 107.603599378797782, 16.37304382324221 ], [ 107.599603949652817, 16.378198920355924 ], [ 107.593622843424512, 16.379733954535613 ], [ 107.585543823242219, 16.386932712131099 ], [ 107.583333333333371, 16.3875 ], [ 107.582482571072077, 16.390815904405404 ], [ 107.581819976112428, 16.390985906527682 ], [ 107.580176687590054, 16.39431932315026 ] ] ] } },
{ "type": "Feature", "properties": { "HYBAS_ID": 4121096571, "NEXT_DOWN": 4120015622, "NEXT_SINK": 4120015621, "MAIN_BAS": 4120015621, "DIST_SINK": 30.3, "DIST_MAIN": 30.3, "SUB_AREA": 19.9, "UP_AREA": 678.5, "PFAF_ID": 441053802100, "SIDE": "L", "LAKE": 0, "ENDO": 0, "COAST": 0, "ORDER": 2, "SORT": 61958 }, "geometry": { "type": "Polygon", "coordinates": [ [ [ 107.5125, 16.354166666666689 ], [ 107.511932712131113, 16.356377156575544 ], [ 107.504733954535624, 16.364456176757834 ], [ 107.503599378797773, 16.367413330078147 ], [ 107.50776604546445, 16.372789510091167 ], [ 107.508900621202287, 16.381377156575542 ], [ 107.512896050347251, 16.386532253689257 ], [ 107.519982571072077, 16.388350762261307 ], [ 107.520833333333371, 16.391666666666687 ], [ 107.535757785373292, 16.391313340928843 ], [ 107.539242214626768, 16.387853325737868 ], [ 107.544091118706632, 16.387146674262176 ], [ 107.548286946614624, 16.382980007595506 ], [ 107.552424452039958, 16.383686659071202 ], [ 107.56007554796011, 16.391313340928843 ], [ 107.564924452039961, 16.392019992404535 ], [ 107.56875, 16.395818752712696 ], [ 107.572575547960099, 16.392019992404535 ], [ 107.575, 16.391666666666687 ], [ 107.574369642469648, 16.389519246419294 ], [ 107.567297024197089, 16.381314086914085 ], [ 107.565942043728327, 16.363262261284746 ], [ 107.553585815429727, 16.362002563476583 ], [ 107.546229722764792, 16.367297024197072 ], [ 107.543685913085966, 16.366036309136305 ], [ 107.539647420247434, 16.363130357530402 ], [ 107.531185913085977, 16.361869642469639 ], [ 107.527147420247431, 16.358963690863739 ], [ 107.518685913085974, 16.357702975802972 ], [ 107.514647420247428, 16.354797024197069 ], [ 107.5125, 16.354166666666689 ] ] ] } },
{ "type": "Feature", "properties": { "HYBAS_ID": 4121096572, "NEXT_DOWN": 4121096571, "NEXT_SINK": 4120015621, "MAIN_BAS": 4120015621, "DIST_SINK": 30.3, "DIST_MAIN": 30.3, "SUB_AREA": 74.1, "UP_AREA": 678.5, "PFAF_ID": 441053802100, "SIDE": "R", "LAKE": 0, "ENDO": 0, "COAST": 0, "ORDER": 2, "SORT": 61959 }, "geometry": { "type": "Polygon", "coordinates": [ [ [ 107.581819976112428, 16.390985906527682 ], [ 107.582482571072077, 16.390815904405404 ], [ 107.583333333333371, 16.3875 ], [ 107.582766045464439, 16.38528951009117 ], [ 107.574432712131113, 16.37593722873266 ], [ 107.575567287868964, 16.360289510091167 ], [ 107.579733954535627, 16.354913330078148 ], [ 107.578159925672779, 16.350811089409746 ], [ 107.57026604546445, 16.348785061306444 ], [ 107.571400621202287, 16.326956176757832 ], [ 107.578599378797776, 16.318877156575542 ], [ 107.579733954535627, 16.314456176757833 ], [ 107.583900621202289, 16.309079996744813 ], [ 107.582766045464439, 16.297789510091167 ], [ 107.578599378797776, 16.292413330078148 ], [ 107.579733954535627, 16.285289510091168 ], [ 107.582766045464439, 16.281377156575541 ], [ 107.583900621202289, 16.264456176757832 ], [ 107.586932712131116, 16.260543823242209 ], [ 107.588467746310798, 16.254562717013911 ], [ 107.593622843424512, 16.250567287868943 ], [ 107.595833333333374, 16.25 ], [ 107.595478990342912, 16.23921339246964 ], [ 107.589924452039966, 16.2336866590712 ], [ 107.580908881293439, 16.232980007595508 ], [ 107.577424452039963, 16.229519992404533 ], [ 107.570833333333368, 16.229166666666686 ], [ 107.570145331488746, 16.240857272677971 ], [ 107.560339694552979, 16.242284138997416 ], [ 107.555028279622434, 16.246164279513909 ], [ 107.553398301866352, 16.257361518012175 ], [ 107.547839694552991, 16.258950805664085 ], [ 107.542528279622431, 16.262830946180578 ], [ 107.541049194335969, 16.272993638780402 ], [ 107.538117472330768, 16.277006361219641 ], [ 107.536882527669306, 16.281326972113735 ], [ 107.533950805664091, 16.285339694552974 ], [ 107.533333333333374, 16.2875 ], [ 107.533950805664091, 16.306326972113737 ], [ 107.53693847656254, 16.31041666666669 ], [ 107.533950805664091, 16.314506361219639 ], [ 107.532361518012181, 16.320064968533007 ], [ 107.521568467881977, 16.321635945638043 ], [ 107.52021586100264, 16.335493638780402 ], [ 107.517284138997425, 16.339506361219641 ], [ 107.515898301866358, 16.34902818467884 ], [ 107.5125, 16.35 ], [ 107.5125, 16.354166666666689 ], [ 107.514647420247428, 16.354797024197069 ], [ 107.518685913085974, 16.357702975802972 ], [ 107.527147420247431, 16.358963690863739 ], [ 107.531185913085977, 16.361869642469639 ], [ 107.539647420247434, 16.363130357530402 ], [ 107.543685913085966, 16.366036309136305 ], [ 107.546229722764792, 16.367297024197072 ], [ 107.553585815429727, 16.362002563476583 ], [ 107.565942043728327, 16.363262261284746 ], [ 107.567297024197089, 16.381314086914085 ], [ 107.574369642469648, 16.389519246419294 ], [ 107.575, 16.391666666666687 ], [ 107.577403642320306, 16.391666666666687 ], [ 107.580192565917969, 16.386228561401367 ], [ 107.582115173339844, 16.385818481445312 ], [ 107.582534790039062, 16.389535903930664 ], [ 107.581819976112428, 16.390985906527682 ] ] ] } },
{ "type": "Feature", "properties": { "HYBAS_ID": 4121577531, "NEXT_DOWN": 4121096572, "NEXT_SINK": 4120015621, "MAIN_BAS": 4120015621, "DIST_SINK": 40.8, "DIST_MAIN": 40.8, "SUB_AREA": 107.8, "UP_AREA": 584.2, "PFAF_ID": 441053802200, "SIDE": "L", "LAKE": 0, "ENDO": 0, "COAST": 0, "ORDER": 2, "SORT": 61960 }, "geometry": { "type": "Polygon", "coordinates": [ [ [ 107.495833333333366, 16.275 ], [ 107.489242214626771, 16.275353325737868 ], [ 107.485757785373295, 16.278813340928842 ], [ 107.480908881293431, 16.279519992404534 ], [ 107.477424452039969, 16.282980007595508 ], [ 107.468408881293442, 16.283686659071201 ], [ 107.464924452039966, 16.287146674262175 ], [ 107.452453613281278, 16.287853325737867 ], [ 107.448257785373301, 16.283686659071201 ], [ 107.43995361328129, 16.282980007595508 ], [ 107.435757785373298, 16.287146674262175 ], [ 107.419120279947947, 16.287853325737867 ], [ 107.414924452039969, 16.283686659071201 ], [ 107.4125, 16.283333333333353 ], [ 107.412853325737885, 16.298257785373284 ], [ 107.416313340928852, 16.301742214626756 ], [ 107.4166666666667, 16.304166666666688 ], [ 107.423043823242224, 16.30473395453561 ], [ 107.4324137369792, 16.313082885742208 ], [ 107.434184095594645, 16.319982571072071 ], [ 107.43971048990889, 16.32140062120228 ], [ 107.443622843424507, 16.324432712131099 ], [ 107.448043823242216, 16.325567287868946 ], [ 107.451956176757847, 16.328599378797765 ], [ 107.457688734266526, 16.330070665147591 ], [ 107.458900621202289, 16.346579996744815 ], [ 107.454733954535627, 16.351956176757835 ], [ 107.453599378797776, 16.354913330078148 ], [ 107.457766045464439, 16.360289510091167 ], [ 107.458900621202289, 16.384079996744813 ], [ 107.453770616319474, 16.390698920355923 ], [ 107.44556884765629, 16.392803955078147 ], [ 107.449432712131113, 16.397789510091169 ], [ 107.450567287868964, 16.402210489908875 ], [ 107.453599378797776, 16.406122843424502 ], [ 107.454733954535627, 16.427951727973113 ], [ 107.447789510091184, 16.429733954535614 ], [ 107.443877156575553, 16.432766045464433 ], [ 107.4375, 16.433333333333355 ], [ 107.437146674262181, 16.435757785373287 ], [ 107.433333672417575, 16.439597574869815 ], [ 107.448283555772605, 16.454519992404535 ], [ 107.456591118706626, 16.453813340928843 ], [ 107.460075547960102, 16.450353325737868 ], [ 107.466666666666697, 16.45 ], [ 107.473257785373292, 16.450353325737868 ], [ 107.476742214626768, 16.453813340928843 ], [ 107.4791666666667, 16.454166666666691 ], [ 107.478599378797782, 16.451956176757836 ], [ 107.470266045464442, 16.44260389539933 ], [ 107.471400621202292, 16.4311228434245 ], [ 107.478599378797782, 16.42304382324221 ], [ 107.480017428927979, 16.417517428927972 ], [ 107.485543823242224, 16.416099378797764 ], [ 107.489456176757841, 16.413067287868945 ], [ 107.49387715657555, 16.411932712131097 ], [ 107.497789510091181, 16.408900621202278 ], [ 107.519842868381104, 16.40771416558162 ], [ 107.524534776475733, 16.402088080512176 ], [ 107.521400621202289, 16.398043823242208 ], [ 107.520833333333371, 16.391666666666687 ], [ 107.519982571072077, 16.388350762261307 ], [ 107.512896050347251, 16.386532253689257 ], [ 107.508900621202287, 16.381377156575542 ], [ 107.50776604546445, 16.372789510091167 ], [ 107.503599378797773, 16.367413330078147 ], [ 107.504733954535624, 16.364456176757834 ], [ 107.511932712131113, 16.356377156575544 ], [ 107.5125, 16.354166666666689 ], [ 107.5125, 16.35 ], [ 107.510075547960099, 16.349646674262175 ], [ 107.504524739583374, 16.344123670789951 ], [ 107.503813340928858, 16.339242214626758 ], [ 107.500353325737876, 16.335757785373286 ], [ 107.499646674262181, 16.319117567274326 ], [ 107.508320109049507, 16.31041666666669 ], [ 107.500353325737876, 16.302424452039951 ], [ 107.499646674262181, 16.293408881293423 ], [ 107.496186659071213, 16.289924452039951 ], [ 107.495480007595518, 16.285075547960091 ], [ 107.49168124728736, 16.28125 ], [ 107.495480007595518, 16.277424452039952 ], [ 107.495833333333366, 16.275 ] ] ] } },
{ "type": "Feature", "properties": { "HYBAS_ID": 4121577532, "NEXT_DOWN": 4121577531, "NEXT_SINK": 4120015621, "MAIN_BAS": 4120015621, "DIST_SINK": 40.8, "DIST_MAIN": 40.8, "SUB_AREA": 22.8, "UP_AREA": 584.2, "PFAF_ID": 441053802200, "SIDE": "R", "LAKE": 0, "ENDO": 0, "COAST": 0, "ORDER": 2, "SORT": 61961 }, "geometry": { "type": "Polygon", "coordinates": [ [ [ 107.5, 16.275 ], [ 107.495833333333366, 16.275 ], [ 107.495480007595518, 16.277424452039952 ], [ 107.49168124728736, 16.28125 ], [ 107.495480007595518, 16.285075547960091 ], [ 107.496186659071213, 16.289924452039951 ], [ 107.499646674262181, 16.293408881293423 ], [ 107.500353325737876, 16.302424452039951 ], [ 107.508320109049507, 16.31041666666669 ], [ 107.499646674262181, 16.319117567274326 ], [ 107.500353325737876, 16.335757785373286 ], [ 107.503813340928858, 16.339242214626758 ], [ 107.504524739583374, 16.344123670789951 ], [ 107.510075547960099, 16.349646674262175 ], [ 107.5125, 16.35 ], [ 107.515898301866358, 16.34902818467884 ], [ 107.517284138997425, 16.339506361219641 ], [ 107.52021586100264, 16.335493638780402 ], [ 107.521568467881977, 16.321635945638043 ], [ 107.532361518012181, 16.320064968533007 ], [ 107.533950805664091, 16.314506361219639 ], [ 107.53693847656254, 16.31041666666669 ], [ 107.533950805664091, 16.306326972113737 ], [ 107.533333333333374, 16.2875 ], [ 107.530908881293442, 16.287146674262175 ], [ 107.523257785373303, 16.279519992404534 ], [ 107.518408881293439, 16.278813340928842 ], [ 107.514924452039963, 16.275353325737868 ], [ 107.5, 16.275 ] ] ] } },
{ "type": "Feature", "properties": { "HYBAS_ID": 4121577911, "NEXT_DOWN": 4121096532, "NEXT_SINK": 4120015621, "MAIN_BAS": 4120015621, "DIST_SINK": 47.4, "DIST_MAIN": 47.4, "SUB_AREA": 132.1, "UP_AREA": 634.7, "PFAF_ID": 441053803200, "SIDE": "L", "LAKE": 0, "ENDO": 0, "COAST": 0, "ORDER": 1, "SORT": 61962 }, "geometry": { "type": "Polygon", "coordinates": [ [ [ 107.5875, 16.1125 ], [ 107.584184095594651, 16.113350762261305 ], [ 107.582766045464439, 16.11887715657554 ], [ 107.575567287868964, 16.126956176757833 ], [ 107.574432712131113, 16.146579996744812 ], [ 107.578599378797776, 16.151956176757832 ], [ 107.579733954535627, 16.154913330078145 ], [ 107.575567287868964, 16.160289510091165 ], [ 107.575, 16.166666666666686 ], [ 107.574646674262183, 16.181591118706617 ], [ 107.571186659071216, 16.185075547960089 ], [ 107.570480007595521, 16.18992445203995 ], [ 107.567019992404553, 16.193408881293422 ], [ 107.566666666666706, 16.195833333333354 ], [ 107.567019992404553, 16.198257785373283 ], [ 107.570480007595521, 16.201742214626755 ], [ 107.570833333333368, 16.229166666666686 ], [ 107.577424452039963, 16.229519992404533 ], [ 107.580908881293439, 16.232980007595508 ], [ 107.589924452039966, 16.2336866590712 ], [ 107.595478990342912, 16.23921339246964 ], [ 107.595833333333374, 16.25 ], [ 107.603188408745694, 16.2506544325087 ], [ 107.616099378797784, 16.264456176757832 ], [ 107.617584906684058, 16.270244344075543 ], [ 107.645833333333371, 16.270833333333353 ], [ 107.649603949652814, 16.26986558702259 ], [ 107.653599378797779, 16.264710489908875 ], [ 107.655134412977461, 16.258729383680578 ], [ 107.660289510091175, 16.25473395453561 ], [ 107.66581590440542, 16.253315904405405 ], [ 107.667233954535632, 16.247789510091167 ], [ 107.671097819010456, 16.242803955078145 ], [ 107.661932712131119, 16.24045172797311 ], [ 107.663067287868955, 16.235289510091167 ], [ 107.666099378797782, 16.23137715657554 ], [ 107.667233954535632, 16.222789510091168 ], [ 107.674432712131107, 16.214710489908875 ], [ 107.675567287868958, 16.210289510091165 ], [ 107.679733954535621, 16.204913330078146 ], [ 107.678599378797784, 16.1936228434245 ], [ 107.675468614366352, 16.189583333333353 ], [ 107.678599378797784, 16.185543823242206 ], [ 107.679733954535621, 16.1811228434245 ], [ 107.682766045464447, 16.177210489908873 ], [ 107.683333333333366, 16.175 ], [ 107.681173027886317, 16.174382527669291 ], [ 107.675861612955771, 16.170502387152798 ], [ 107.674197387695344, 16.159068467881966 ], [ 107.660339694552988, 16.157715861002625 ], [ 107.656326972113746, 16.154784138997417 ], [ 107.643673027886322, 16.153549194335959 ], [ 107.63966030544708, 16.150617472330751 ], [ 107.637030707465314, 16.149382527669292 ], [ 107.631326972113754, 16.153549194335959 ], [ 107.627006361219657, 16.154784138997417 ], [ 107.622916666666697, 16.157771809895852 ], [ 107.618826972113752, 16.154784138997417 ], [ 107.614506361219654, 16.153549194335959 ], [ 107.596536933051254, 16.136665174696201 ], [ 107.595215861002643, 16.118673027886306 ], [ 107.591552734375028, 16.113658650716165 ], [ 107.5875, 16.1125 ] ] ] } },
{ "type": "Feature", "properties": { "HYBAS_ID": 4121577912, "NEXT_DOWN": 4121577911, "NEXT_SINK": 4120015621, "MAIN_BAS": 4120015621, "DIST_SINK": 47.4, "DIST_MAIN": 47.4, "SUB_AREA": 30.6, "UP_AREA": 634.7, "PFAF_ID": 441053803200, "SIDE": "R", "LAKE": 0, "ENDO": 0, "COAST": 0, "ORDER": 1, "SORT": 61963 }, "geometry": { "type": "Polygon", "coordinates": [ [ [ 107.6875, 16.175 ], [ 107.683333333333366, 16.175 ], [ 107.682766045464447, 16.177210489908873 ], [ 107.679733954535621, 16.1811228434245 ], [ 107.678599378797784, 16.185543823242206 ], [ 107.675468614366352, 16.189583333333353 ], [ 107.678599378797784, 16.1936228434245 ], [ 107.679733954535621, 16.204913330078146 ], [ 107.675567287868958, 16.210289510091165 ], [ 107.674432712131107, 16.214710489908875 ], [ 107.667233954535632, 16.222789510091168 ], [ 107.666099378797782, 16.23137715657554 ], [ 107.663067287868955, 16.235289510091167 ], [ 107.661932712131119, 16.24045172797311 ], [ 107.671097819010456, 16.242803955078145 ], [ 107.667233954535632, 16.247789510091167 ], [ 107.66581590440542, 16.253315904405405 ], [ 107.660289510091175, 16.25473395453561 ], [ 107.655134412977461, 16.258729383680578 ], [ 107.653599378797779, 16.264710489908875 ], [ 107.649603949652814, 16.26986558702259 ], [ 107.645833333333371, 16.270833333333353 ], [ 107.645833333333371, 16.275 ], [ 107.652424452039966, 16.275353325737868 ], [ 107.656250678168433, 16.27915276421443 ], [ 107.664242214626768, 16.271186659071201 ], [ 107.675, 16.270833333333353 ], [ 107.675655449761322, 16.264544338650193 ], [ 107.67851121690542, 16.260455661349848 ], [ 107.679903835720523, 16.238237169053839 ], [ 107.702122328016529, 16.236844550238736 ], [ 107.708087497287366, 16.23267788357207 ], [ 107.718788994683194, 16.233988783094638 ], [ 107.722877671983539, 16.236844550238736 ], [ 107.725, 16.2375 ], [ 107.724432712131119, 16.235289510091167 ], [ 107.721400621202292, 16.23137715657554 ], [ 107.720266045464442, 16.226956176757835 ], [ 107.708900621202289, 16.214710489908875 ], [ 107.707766045464439, 16.201956176757832 ], [ 107.704733954535627, 16.198043823242209 ], [ 107.703029378255238, 16.191402180989606 ], [ 107.696579996744831, 16.196400621202276 ], [ 107.692352973090308, 16.194778781467033 ], [ 107.691099378797773, 16.185289510091167 ], [ 107.688067287868961, 16.181377156575543 ], [ 107.6875, 16.175 ] ] ] } },
{ "type": "Feature", "properties": { "HYBAS_ID": 4121577901, "NEXT_DOWN": 4121577532, "NEXT_SINK": 4120015621, "MAIN_BAS": 4120015621, "DIST_SINK": 50.9, "DIST_MAIN": 50.9, "SUB_AREA": 130.4, "UP_AREA": 453.6, "PFAF_ID": 441053802300, "SIDE": "L", "LAKE": 0, "ENDO": 0, "COAST": 0, "ORDER": 2, "SORT": 61964 }, "geometry": { "type": "Polygon", "coordinates": [ [ [ 107.4166666666667, 16.175 ], [ 107.416099378797782, 16.177210489908873 ], [ 107.413067287868955, 16.1811228434245 ], [ 107.411932712131104, 16.185543823242206 ], [ 107.408900621202292, 16.189456176757833 ], [ 107.40748257107208, 16.194982571072067 ], [ 107.400614081488754, 16.196745130750887 ], [ 107.399432712131116, 16.223043823242207 ], [ 107.395437282986137, 16.228198920355922 ], [ 107.387102593316001, 16.230337863498285 ], [ 107.399432712131116, 16.2436228434245 ], [ 107.400567287868952, 16.252951727973112 ], [ 107.395833333333371, 16.254166666666688 ], [ 107.396186659071219, 16.260757785373286 ], [ 107.403813340928849, 16.268408881293425 ], [ 107.404519992404545, 16.273257785373286 ], [ 107.412146674262189, 16.280908881293424 ], [ 107.4125, 16.283333333333353 ], [ 107.414924452039969, 16.283686659071201 ], [ 107.419120279947947, 16.287853325737867 ], [ 107.435757785373298, 16.287146674262175 ], [ 107.43995361328129, 16.282980007595508 ], [ 107.448257785373301, 16.283686659071201 ], [ 107.452453613281278, 16.287853325737867 ], [ 107.464924452039966, 16.287146674262175 ], [ 107.468408881293442, 16.283686659071201 ], [ 107.477424452039969, 16.282980007595508 ], [ 107.480908881293431, 16.279519992404534 ], [ 107.485757785373295, 16.278813340928842 ], [ 107.489242214626771, 16.275353325737868 ], [ 107.495833333333366, 16.275 ], [ 107.5, 16.275 ], [ 107.500353325737876, 16.260075547960092 ], [ 107.512146674262183, 16.248257785373283 ], [ 107.512853325737879, 16.239242214626756 ], [ 107.520480007595523, 16.231591118706618 ], [ 107.521186659071219, 16.226742214626757 ], [ 107.524646674262186, 16.223257785373285 ], [ 107.525353325737882, 16.214242214626758 ], [ 107.529152086046039, 16.210416666666688 ], [ 107.525353325737882, 16.206591118706619 ], [ 107.524646674262186, 16.201742214626755 ], [ 107.521186659071219, 16.198257785373283 ], [ 107.520833333333371, 16.1875 ], [ 107.510289510091184, 16.186932712131096 ], [ 107.505303955078162, 16.183068847656269 ], [ 107.503262668185798, 16.19102308485245 ], [ 107.486562771267401, 16.19223395453561 ], [ 107.477092149522605, 16.183795166015646 ], [ 107.473043823242222, 16.186932712131096 ], [ 107.464456176757849, 16.188067287868943 ], [ 107.460543823242219, 16.191099378797762 ], [ 107.456122843424509, 16.19223395453561 ], [ 107.452083333333363, 16.195364718967035 ], [ 107.448043823242216, 16.19223395453561 ], [ 107.443622843424507, 16.191099378797762 ], [ 107.43971048990889, 16.188067287868943 ], [ 107.434184095594645, 16.186649237738735 ], [ 107.432482571072086, 16.180017428927972 ], [ 107.426956176757841, 16.178599378797763 ], [ 107.423043823242224, 16.175567287868944 ], [ 107.4166666666667, 16.175 ] ] ] } },
{ "type": "Feature", "properties": { "HYBAS_ID": 4121577902, "NEXT_DOWN": 4121577901, "NEXT_SINK": 4120015621, "MAIN_BAS": 4120015621, "DIST_SINK": 50.9, "DIST_MAIN": 50.9, "SUB_AREA": 48.3, "UP_AREA": 453.6, "PFAF_ID": 441053802300, "SIDE": "R", "LAKE": 0, "ENDO": 0, "COAST": 0, "ORDER": 2, "SORT": 61965 }, "geometry": { "type": "Polygon", "coordinates": [ [ [ 107.520833333333371, 16.1875 ], [ 107.521186659071219, 16.198257785373283 ], [ 107.524646674262186, 16.201742214626755 ], [ 107.525353325737882, 16.206591118706619 ], [ 107.529152086046039, 16.210416666666688 ], [ 107.525353325737882, 16.214242214626758 ], [ 107.524646674262186, 16.223257785373285 ], [ 107.521186659071219, 16.226742214626757 ], [ 107.520480007595523, 16.231591118706618 ], [ 107.512853325737879, 16.239242214626756 ], [ 107.512146674262183, 16.248257785373283 ], [ 107.500353325737876, 16.260075547960092 ], [ 107.5, 16.275 ], [ 107.514924452039963, 16.275353325737868 ], [ 107.518408881293439, 16.278813340928842 ], [ 107.523257785373303, 16.279519992404534 ], [ 107.530908881293442, 16.287146674262175 ], [ 107.533333333333374, 16.2875 ], [ 107.533950805664091, 16.285339694552974 ], [ 107.536882527669306, 16.281326972113735 ], [ 107.538117472330768, 16.277006361219641 ], [ 107.541049194335969, 16.272993638780402 ], [ 107.542528279622431, 16.262830946180578 ], [ 107.547839694552991, 16.258950805664085 ], [ 107.553398301866352, 16.257361518012175 ], [ 107.555028279622434, 16.246164279513909 ], [ 107.560339694552979, 16.242284138997416 ], [ 107.570145331488746, 16.240857272677971 ], [ 107.570833333333368, 16.229166666666686 ], [ 107.570480007595521, 16.201742214626755 ], [ 107.567019992404553, 16.198257785373283 ], [ 107.566666666666706, 16.195833333333354 ], [ 107.564456176757844, 16.195266045464429 ], [ 107.560543823242227, 16.19223395453561 ], [ 107.534245130750904, 16.191052585177971 ], [ 107.532196044921903, 16.183068847656269 ], [ 107.527210489908882, 16.186932712131096 ], [ 107.520833333333371, 16.1875 ] ] ] } },
{ "type": "Feature", "properties": { "HYBAS_ID": 4121099031, "NEXT_DOWN": 4121577912, "NEXT_SINK": 4120015621, "MAIN_BAS": 4120015621, "DIST_SINK": 61.8, "DIST_MAIN": 61.8, "SUB_AREA": 124.7, "UP_AREA": 243.1, "PFAF_ID": 441053805000, "SIDE": "L", "LAKE": 0, "ENDO": 0, "COAST": 0, "ORDER": 1, "SORT": 61966 }, "geometry": { "type": "Polygon", "coordinates": [ [ [ 107.758333333333368, 16.05 ], [ 107.75776604546445, 16.052210489908873 ], [ 107.754733954535624, 16.056122843424497 ], [ 107.753599378797773, 16.060543823242206 ], [ 107.742233954535621, 16.072789510091166 ], [ 107.741099378797784, 16.081377156575542 ], [ 107.73710394965282, 16.086532253689256 ], [ 107.731122843424515, 16.088067287868942 ], [ 107.725632731119831, 16.092645602756097 ], [ 107.724432712131119, 16.110543823242207 ], [ 107.721400621202292, 16.114456176757834 ], [ 107.720266045464442, 16.127210489908876 ], [ 107.716270616319477, 16.132365587022591 ], [ 107.709184095594651, 16.134184095594637 ], [ 107.707766045464439, 16.139710489908875 ], [ 107.704733954535627, 16.143622843424499 ], [ 107.703599378797776, 16.148043823242208 ], [ 107.696400621202287, 16.156122843424498 ], [ 107.69526604546445, 16.164710489908874 ], [ 107.692233954535624, 16.168622843424501 ], [ 107.691666666666706, 16.170833333333352 ], [ 107.71049363878042, 16.170215861002625 ], [ 107.714506361219648, 16.167284138997417 ], [ 107.724264865451431, 16.165864054362 ], [ 107.725735473632852, 16.150799899631096 ], [ 107.731173027886314, 16.146450805664081 ], [ 107.735493638780412, 16.145215861002626 ], [ 107.739506361219654, 16.142284138997415 ], [ 107.749028184678849, 16.14089830186634 ], [ 107.751158650716178, 16.133447265625019 ], [ 107.757864040798651, 16.128549194335957 ], [ 107.768826972113757, 16.129784138997415 ], [ 107.772839694552985, 16.132715861002623 ], [ 107.785493638780423, 16.133950805664082 ], [ 107.789583333333368, 16.13693847656252 ], [ 107.795364040798646, 16.132715861002623 ], [ 107.814660305447092, 16.133950805664082 ], [ 107.822910224066874, 16.141109890408007 ], [ 107.827083333333377, 16.138061523437521 ], [ 107.832864040798654, 16.142284138997415 ], [ 107.83549363878042, 16.141049194335956 ], [ 107.84119737413198, 16.13688252766929 ], [ 107.853382703993091, 16.138255479600716 ], [ 107.857774522569485, 16.143746609158008 ], [ 107.853549194335969, 16.149530707465299 ], [ 107.854784138997431, 16.156326972113735 ], [ 107.858950805664094, 16.162030707465298 ], [ 107.857715861002646, 16.168826972113735 ], [ 107.854784138997431, 16.172839694552973 ], [ 107.853549194335969, 16.177160305447067 ], [ 107.849382527669306, 16.182864040798631 ], [ 107.851688639322958, 16.18777330186634 ], [ 107.856173027886328, 16.191049194335957 ], [ 107.858333333333377, 16.191666666666688 ], [ 107.8625, 16.191666666666688 ], [ 107.863117472330771, 16.189506361219639 ], [ 107.874382527669312, 16.177160305447067 ], [ 107.875794135199683, 16.167460801866341 ], [ 107.887169053819477, 16.165805053710958 ], [ 107.892284138997439, 16.158802625868077 ], [ 107.891049194335977, 16.152006361219637 ], [ 107.883950805664099, 16.143826972113736 ], [ 107.882715861002637, 16.139506361219638 ], [ 107.879784138997437, 16.135493638780403 ], [ 107.878549194335974, 16.122839694552972 ], [ 107.87556152343754, 16.11875 ], [ 107.878549194335974, 16.114660305447067 ], [ 107.879166666666706, 16.1125 ], [ 107.868408881293433, 16.112146674262171 ], [ 107.864924452039972, 16.1086866590712 ], [ 107.855908881293445, 16.107980007595508 ], [ 107.852424452039969, 16.104519992404533 ], [ 107.847575547960105, 16.103813340928838 ], [ 107.844091118706629, 16.100353325737867 ], [ 107.839242214626779, 16.099646674262171 ], [ 107.821188015408026, 16.081617906358527 ], [ 107.820833333333368, 16.075 ], [ 107.818673027886319, 16.075617641872867 ], [ 107.814660305447092, 16.078549024793872 ], [ 107.791197374131983, 16.079784308539534 ], [ 107.785493638780423, 16.075617641872867 ], [ 107.775735134548654, 16.074197387695349 ], [ 107.774382527669303, 16.060339864095088 ], [ 107.765863376193607, 16.050735134548646 ], [ 107.758333333333368, 16.05 ] ] ] } },
{ "type": "Feature", "properties": { "HYBAS_ID": 4121099032, "NEXT_DOWN": 4121099031, "NEXT_SINK": 4120015621, "MAIN_BAS": 4120015621, "DIST_SINK": 61.8, "DIST_MAIN": 61.8, "SUB_AREA": 118.4, "UP_AREA": 243.1, "PFAF_ID": 441053805000, "SIDE": "R", "LAKE": 0, "ENDO": 0, "COAST": 0, "ORDER": 1, "SORT": 61967 }, "geometry": { "type": "Polygon", "coordinates": [ [ [ 107.691666666666706, 16.170833333333352 ], [ 107.690815904405412, 16.174149237738735 ], [ 107.6875, 16.175 ], [ 107.688067287868961, 16.181377156575543 ], [ 107.691099378797773, 16.185289510091167 ], [ 107.692352973090308, 16.194778781467033 ], [ 107.696579996744831, 16.196400621202276 ], [ 107.703029378255238, 16.191402180989606 ], [ 107.704733954535627, 16.198043823242209 ], [ 107.707766045464439, 16.201956176757832 ], [ 107.708900621202289, 16.214710489908875 ], [ 107.720266045464442, 16.226956176757835 ], [ 107.721400621202292, 16.23137715657554 ], [ 107.724432712131119, 16.235289510091167 ], [ 107.725, 16.2375 ], [ 107.741666666666703, 16.2375 ], [ 107.745833333333366, 16.2375 ], [ 107.748257785373298, 16.237146674262174 ], [ 107.751742214626773, 16.2336866590712 ], [ 107.76078559027782, 16.2329779730903 ], [ 107.774646674262186, 16.219091118706618 ], [ 107.775354003906287, 16.197549099392383 ], [ 107.789242214626768, 16.183686659071199 ], [ 107.810757785373298, 16.182980007595507 ], [ 107.814242214626773, 16.179519992404533 ], [ 107.819091118706638, 16.178813340928841 ], [ 107.822575547960099, 16.175353325737866 ], [ 107.827424452039963, 16.174646674262174 ], [ 107.830908881293439, 16.1711866590712 ], [ 107.833333333333371, 16.170833333333352 ], [ 107.836838785807331, 16.171732923719638 ], [ 107.838161214192752, 16.186600409613735 ], [ 107.843877156575559, 16.188067287868943 ], [ 107.847789510091189, 16.191099378797762 ], [ 107.852210489908884, 16.19223395453561 ], [ 107.856122843424515, 16.195266045464429 ], [ 107.858333333333377, 16.195833333333354 ], [ 107.858333333333377, 16.191666666666688 ], [ 107.856173027886328, 16.191049194335957 ], [ 107.851688639322958, 16.18777330186634 ], [ 107.849382527669306, 16.182864040798631 ], [ 107.853549194335969, 16.177160305447067 ], [ 107.854784138997431, 16.172839694552973 ], [ 107.857715861002646, 16.168826972113735 ], [ 107.858950805664094, 16.162030707465298 ], [ 107.854784138997431, 16.156326972113735 ], [ 107.853549194335969, 16.149530707465299 ], [ 107.857774522569485, 16.143746609158008 ], [ 107.853382703993091, 16.138255479600716 ], [ 107.84119737413198, 16.13688252766929 ], [ 107.83549363878042, 16.141049194335956 ], [ 107.832864040798654, 16.142284138997415 ], [ 107.827083333333377, 16.138061523437521 ], [ 107.822910224066874, 16.141109890408007 ], [ 107.814660305447092, 16.133950805664082 ], [ 107.795364040798646, 16.132715861002623 ], [ 107.789583333333368, 16.13693847656252 ], [ 107.785493638780423, 16.133950805664082 ], [ 107.772839694552985, 16.132715861002623 ], [ 107.768826972113757, 16.129784138997415 ], [ 107.757864040798651, 16.128549194335957 ], [ 107.751158650716178, 16.133447265625019 ], [ 107.749028184678849, 16.14089830186634 ], [ 107.739506361219654, 16.142284138997415 ], [ 107.735493638780412, 16.145215861002626 ], [ 107.731173027886314, 16.146450805664081 ], [ 107.725735473632852, 16.150799899631096 ], [ 107.724264865451431, 16.165864054362 ], [ 107.714506361219648, 16.167284138997417 ], [ 107.71049363878042, 16.170215861002625 ], [ 107.691666666666706, 16.170833333333352 ] ] ] } },
{ "type": "Feature", "properties": { "HYBAS_ID": 4121099080, "NEXT_DOWN": 4121577912, "NEXT_SINK": 4120015621, "MAIN_BAS": 4120015621, "DIST_SINK": 61.8, "DIST_MAIN": 61.8, "SUB_AREA": 228.7, "UP_AREA": 228.9, "PFAF_ID": 441053804000, "SIDE": "M", "LAKE": 0, "ENDO": 0, "COAST": 0, "ORDER": 2, "SORT": 61968 }, "geometry": { "type": "Polygon", "coordinates": [ [ [ 107.683333333333366, 16.175 ], [ 107.6875, 16.175 ], [ 107.690815904405412, 16.174149237738735 ], [ 107.691666666666706, 16.170833333333352 ], [ 107.692233954535624, 16.168622843424501 ], [ 107.69526604546445, 16.164710489908874 ], [ 107.696400621202287, 16.156122843424498 ], [ 107.703599378797776, 16.148043823242208 ], [ 107.704733954535627, 16.143622843424499 ], [ 107.707766045464439, 16.139710489908875 ], [ 107.709184095594651, 16.134184095594637 ], [ 107.716270616319477, 16.132365587022591 ], [ 107.720266045464442, 16.127210489908876 ], [ 107.721400621202292, 16.114456176757834 ], [ 107.724432712131119, 16.110543823242207 ], [ 107.725632731119831, 16.092645602756097 ], [ 107.731122843424515, 16.088067287868942 ], [ 107.73710394965282, 16.086532253689256 ], [ 107.741099378797784, 16.081377156575542 ], [ 107.742233954535621, 16.072789510091166 ], [ 107.753599378797773, 16.060543823242206 ], [ 107.754733954535624, 16.056122843424497 ], [ 107.75776604546445, 16.052210489908873 ], [ 107.758333333333368, 16.05 ], [ 107.757482571072089, 16.046684265136754 ], [ 107.751956176757844, 16.045266045464444 ], [ 107.748043823242227, 16.042233954535625 ], [ 107.743622843424518, 16.041099378797778 ], [ 107.739710489908887, 16.038067287868959 ], [ 107.733916219075553, 16.036580234103766 ], [ 107.725461832682328, 16.027092149522606 ], [ 107.729733954535632, 16.021579996744826 ], [ 107.728431871202289, 16.013404168023037 ], [ 107.710543823242219, 15.996400621202291 ], [ 107.7, 15.995833333333369 ], [ 107.68507554796011, 15.996186659071215 ], [ 107.681591118706635, 15.999646674262188 ], [ 107.676742214626771, 16.000353325737883 ], [ 107.671191406250031, 16.005876498752205 ], [ 107.670480007595515, 16.010757785373301 ], [ 107.660788302951431, 16.020475599500902 ], [ 107.658333333333374, 16.020833333333368 ], [ 107.651956176757849, 16.021400621202293 ], [ 107.648043823242219, 16.024432712131112 ], [ 107.643622843424509, 16.025567287868959 ], [ 107.639710489908893, 16.028599378797779 ], [ 107.631122843424521, 16.029733954535626 ], [ 107.62721048990889, 16.032766045464445 ], [ 107.621572197808192, 16.034213087293871 ], [ 107.620266045464447, 16.042413330078162 ], [ 107.62443271213111, 16.047789510091182 ], [ 107.625567287868961, 16.050746663411495 ], [ 107.621400621202298, 16.056122843424514 ], [ 107.619696044921909, 16.062764655219219 ], [ 107.614710489908887, 16.058900621202291 ], [ 107.610289510091178, 16.057766045464444 ], [ 107.606377156575562, 16.054733954535624 ], [ 107.570833333333368, 16.054166666666685 ], [ 107.571186659071216, 16.073257785373283 ], [ 107.57881334092886, 16.080908881293421 ], [ 107.579519992404542, 16.085757785373282 ], [ 107.587146674262186, 16.093408881293421 ], [ 107.5875, 16.1125 ], [ 107.591552734375028, 16.113658650716165 ], [ 107.595215861002643, 16.118673027886306 ], [ 107.596536933051254, 16.136665174696201 ], [ 107.614506361219654, 16.153549194335959 ], [ 107.618826972113752, 16.154784138997417 ], [ 107.622916666666697, 16.157771809895852 ], [ 107.627006361219657, 16.154784138997417 ], [ 107.631326972113754, 16.153549194335959 ], [ 107.637030707465314, 16.149382527669292 ], [ 107.63966030544708, 16.150617472330751 ], [ 107.643673027886322, 16.153549194335959 ], [ 107.656326972113746, 16.154784138997417 ], [ 107.660339694552988, 16.157715861002625 ], [ 107.674197387695344, 16.159068467881966 ], [ 107.675861612955771, 16.170502387152798 ], [ 107.681173027886317, 16.174382527669291 ], [ 107.683333333333366, 16.175 ] ] ] } },
{ "type": "Feature", "properties": { "HYBAS_ID": 4121578361, "NEXT_DOWN": 4121577902, "NEXT_SINK": 4120015621, "MAIN_BAS": 4120015621, "DIST_SINK": 62.3, "DIST_MAIN": 62.3, "SUB_AREA": 86.0, "UP_AREA": 274.9, "PFAF_ID": 441053802400, "SIDE": "L", "LAKE": 0, "ENDO": 0, "COAST": 0, "ORDER": 2, "SORT": 61969 }, "geometry": { "type": "Polygon", "coordinates": [ [ [ 107.4625, 16.079166666666687 ], [ 107.460289510091172, 16.079733954535609 ], [ 107.456377156575556, 16.082766045464428 ], [ 107.450850762261325, 16.084184095594637 ], [ 107.449432712131113, 16.089710489908875 ], [ 107.446400621202287, 16.093622843424498 ], [ 107.44526604546445, 16.102210489908874 ], [ 107.438067287868961, 16.110289510091164 ], [ 107.43693271213111, 16.114710489908873 ], [ 107.429733954535621, 16.122789510091167 ], [ 107.42859937879777, 16.127210489908876 ], [ 107.421400621202295, 16.135289510091166 ], [ 107.420266045464444, 16.139710489908875 ], [ 107.413067287868955, 16.147789510091165 ], [ 107.411932712131104, 16.150746663411478 ], [ 107.416099378797782, 16.156122843424498 ], [ 107.417233954535618, 16.163246663411478 ], [ 107.412968614366349, 16.16875 ], [ 107.416099378797782, 16.172789510091167 ], [ 107.4166666666667, 16.175 ], [ 107.423043823242224, 16.175567287868944 ], [ 107.426956176757841, 16.178599378797763 ], [ 107.432482571072086, 16.180017428927972 ], [ 107.434184095594645, 16.186649237738735 ], [ 107.43971048990889, 16.188067287868943 ], [ 107.443622843424507, 16.191099378797762 ], [ 107.448043823242216, 16.19223395453561 ], [ 107.452083333333363, 16.195364718967035 ], [ 107.456122843424509, 16.19223395453561 ], [ 107.460543823242219, 16.191099378797762 ], [ 107.464456176757849, 16.188067287868943 ], [ 107.473043823242222, 16.186932712131096 ], [ 107.477092149522605, 16.183795166015646 ], [ 107.486562771267401, 16.19223395453561 ], [ 107.503262668185798, 16.19102308485245 ], [ 107.505303955078162, 16.183068847656269 ], [ 107.510289510091184, 16.186932712131096 ], [ 107.520833333333371, 16.1875 ], [ 107.520480007595523, 16.176742214626756 ], [ 107.517019992404542, 16.173257785373284 ], [ 107.516666666666694, 16.158333333333353 ], [ 107.514531792534754, 16.15769042968752 ], [ 107.504965549045167, 16.149498494466165 ], [ 107.503523763020866, 16.135365125868077 ], [ 107.488101196289094, 16.118756781684048 ], [ 107.491060384114618, 16.114583333333353 ], [ 107.487523396809934, 16.109595065646722 ], [ 107.481198459201423, 16.107690429687519 ], [ 107.477134874131977, 16.104809570312518 ], [ 107.462249755859403, 16.103291151258702 ], [ 107.466023763020871, 16.097968207465296 ], [ 107.467309570312537, 16.095511542426234 ], [ 107.46314290364586, 16.089634874131963 ], [ 107.4625, 16.079166666666687 ] ] ] } },
{ "type": "Feature", "properties": { "HYBAS_ID": 4121578362, "NEXT_DOWN": 4121578361, "NEXT_SINK": 4120015621, "MAIN_BAS": 4120015621, "DIST_SINK": 62.3, "DIST_MAIN": 62.3, "SUB_AREA": 18.3, "UP_AREA": 274.9, "PFAF_ID": 441053802400, "SIDE": "R", "LAKE": 0, "ENDO": 0, "COAST": 0, "ORDER": 2, "SORT": 61970 }, "geometry": { "type": "Polygon", "coordinates": [ [ [ 107.520833333333371, 16.158333333333353 ], [ 107.516666666666694, 16.158333333333353 ], [ 107.517019992404542, 16.173257785373284 ], [ 107.520480007595523, 16.176742214626756 ], [ 107.520833333333371, 16.1875 ], [ 107.527210489908882, 16.186932712131096 ], [ 107.532196044921903, 16.183068847656269 ], [ 107.534245130750904, 16.191052585177971 ], [ 107.560543823242227, 16.19223395453561 ], [ 107.564456176757844, 16.195266045464429 ], [ 107.566666666666706, 16.195833333333354 ], [ 107.567019992404553, 16.193408881293422 ], [ 107.570480007595521, 16.18992445203995 ], [ 107.571186659071216, 16.185075547960089 ], [ 107.574646674262183, 16.181591118706617 ], [ 107.575, 16.166666666666686 ], [ 107.572789510091184, 16.166099378797764 ], [ 107.568877156575553, 16.163067287868945 ], [ 107.543622843424515, 16.161932712131097 ], [ 107.539574517144132, 16.158795166015643 ], [ 107.531377156575559, 16.166099378797764 ], [ 107.526214938693613, 16.167233954535611 ], [ 107.524149237738754, 16.15918409559464 ], [ 107.520833333333371, 16.158333333333353 ] ] ] } },
{ "type": "Feature", "properties": { "HYBAS_ID": 4121578501, "NEXT_DOWN": 4121578362, "NEXT_SINK": 4120015621, "MAIN_BAS": 4120015621, "DIST_SINK": 65.9, "DIST_MAIN": 65.9, "SUB_AREA": 38.9, "UP_AREA": 170.6, "PFAF_ID": 441053802500, "SIDE": "L", "LAKE": 0, "ENDO": 0, "COAST": 0, "ORDER": 2, "SORT": 61971 }, "geometry": { "type": "Polygon", "coordinates": [ [ [ 107.45, 16.0625 ], [ 107.450353325737879, 16.06492445203995 ], [ 107.457980007595523, 16.072575547960088 ], [ 107.458333333333371, 16.075 ], [ 107.461649237738754, 16.075850762261304 ], [ 107.4625, 16.079166666666687 ], [ 107.46314290364586, 16.089634874131963 ], [ 107.467309570312537, 16.095511542426234 ], [ 107.466023763020871, 16.097968207465296 ], [ 107.462249755859403, 16.103291151258702 ], [ 107.477134874131977, 16.104809570312518 ], [ 107.481198459201423, 16.107690429687519 ], [ 107.487523396809934, 16.109595065646722 ], [ 107.491060384114618, 16.114583333333353 ], [ 107.488101196289094, 16.118756781684048 ], [ 107.503523763020866, 16.135365125868077 ], [ 107.504965549045167, 16.149498494466165 ], [ 107.514531792534754, 16.15769042968752 ], [ 107.516666666666694, 16.158333333333353 ], [ 107.520833333333371, 16.158333333333353 ], [ 107.520228407118083, 16.156160481770854 ], [ 107.507728407118094, 16.142518785264777 ], [ 107.508938259548643, 16.135327148437518 ], [ 107.513104926215306, 16.129707166883701 ], [ 107.511895073784757, 16.118660481770853 ], [ 107.508872138129377, 16.114583333333353 ], [ 107.511895073784757, 16.110506184895854 ], [ 107.513104926215306, 16.081160481770851 ], [ 107.517271592881983, 16.075540500217034 ], [ 107.515836927625898, 16.067382812500021 ], [ 107.5019938151042, 16.06606174045141 ], [ 107.498006184895871, 16.063104926215296 ], [ 107.489493815104197, 16.06189507378474 ], [ 107.485506184895868, 16.058938259548629 ], [ 107.480074055989618, 16.057425944010436 ], [ 107.477837795681452, 16.049395073784741 ], [ 107.459207831488754, 16.050682237413213 ], [ 107.450604926215306, 16.060327148437519 ], [ 107.45, 16.0625 ] ] ] } },
{ "type": "Feature", "properties": { "HYBAS_ID": 4121578502, "NEXT_DOWN": 4121578501, "NEXT_SINK": 4120015621, "MAIN_BAS": 4120015621, "DIST_SINK": 65.9, "DIST_MAIN": 65.9, "SUB_AREA": 131.6, "UP_AREA": 170.6, "PFAF_ID": 441053802500, "SIDE": "R", "LAKE": 0, "ENDO": 0, "COAST": 0, "ORDER": 2, "SORT": 61972 }, "geometry": { "type": "Polygon", "coordinates": [ [ [ 107.466666666666697, 16.025 ], [ 107.464456176757849, 16.025567287868942 ], [ 107.452210489908893, 16.036932712131097 ], [ 107.44526604546445, 16.038714938693595 ], [ 107.446454874674515, 16.061590237087692 ], [ 107.45, 16.0625 ], [ 107.450604926215306, 16.060327148437519 ], [ 107.459207831488754, 16.050682237413213 ], [ 107.477837795681452, 16.049395073784741 ], [ 107.480074055989618, 16.057425944010436 ], [ 107.485506184895868, 16.058938259548629 ], [ 107.489493815104197, 16.06189507378474 ], [ 107.498006184895871, 16.063104926215296 ], [ 107.5019938151042, 16.06606174045141 ], [ 107.515836927625898, 16.067382812500021 ], [ 107.517271592881983, 16.075540500217034 ], [ 107.513104926215306, 16.081160481770851 ], [ 107.511895073784757, 16.110506184895854 ], [ 107.508872138129377, 16.114583333333353 ], [ 107.511895073784757, 16.118660481770853 ], [ 107.513104926215306, 16.129707166883701 ], [ 107.508938259548643, 16.135327148437518 ], [ 107.507728407118094, 16.142518785264777 ], [ 107.520228407118083, 16.156160481770854 ], [ 107.520833333333371, 16.158333333333353 ], [ 107.524149237738754, 16.15918409559464 ], [ 107.526214938693613, 16.167233954535611 ], [ 107.531377156575559, 16.166099378797764 ], [ 107.539574517144132, 16.158795166015643 ], [ 107.543622843424515, 16.161932712131097 ], [ 107.568877156575553, 16.163067287868945 ], [ 107.572789510091184, 16.166099378797764 ], [ 107.575, 16.166666666666686 ], [ 107.575567287868964, 16.160289510091165 ], [ 107.579733954535627, 16.154913330078145 ], [ 107.578599378797776, 16.151956176757832 ], [ 107.574432712131113, 16.146579996744812 ], [ 107.575567287868964, 16.126956176757833 ], [ 107.582766045464439, 16.11887715657554 ], [ 107.584184095594651, 16.113350762261305 ], [ 107.5875, 16.1125 ], [ 107.587146674262186, 16.093408881293421 ], [ 107.579519992404542, 16.085757785373282 ], [ 107.57881334092886, 16.080908881293421 ], [ 107.571186659071216, 16.073257785373283 ], [ 107.570833333333368, 16.054166666666685 ], [ 107.569982571072089, 16.050850931803421 ], [ 107.563107638888923, 16.049086676703595 ], [ 107.561896091037354, 16.017669677734411 ], [ 107.55637715657555, 16.01306728786896 ], [ 107.551956176757841, 16.011932712131113 ], [ 107.546579996744825, 16.007766045464443 ], [ 107.543622843424515, 16.00890062120229 ], [ 107.539710489908884, 16.011932712131113 ], [ 107.514456176757847, 16.01306728786896 ], [ 107.510543823242216, 16.016099378797779 ], [ 107.504875013563407, 16.017554050021737 ], [ 107.503463745117216, 16.028237406412796 ], [ 107.492626274956635, 16.038067287868959 ], [ 107.489456176757841, 16.036932712131112 ], [ 107.485543823242224, 16.033900621202292 ], [ 107.481122843424515, 16.032766045464445 ], [ 107.477210489908884, 16.029733954535626 ], [ 107.472789510091175, 16.028599378797779 ], [ 107.468877156575559, 16.025567287868959 ], [ 107.466666666666697, 16.025 ] ] ] } }
]
}
